     2.11           N: GNSS NAV DATA    E: Galileo          RINEX VERSION / TYPE
CONVBIN 2.4.3                           20190513 135728 UTC PGM / RUN BY / DATE 
log: ../Results/Logs/2019-05-10_10-38-21.ubx                COMMENT             
format: u-blox                                              COMMENT             
                                                            END OF HEADER       
C14 2019  5 10 10  0  0  .625195330940E-03 -.230553354186E-10  .116551733542E-17
      .100000000000E+02 -.525000000000E+01  .399159483738E-08 -.230175943574E+01
     -.337604433298E-06  .219742918853E-02  .898959115148E-05  .528261498260E+04
      .468000000000E+06  .931322574615E-09 -.126781987027E+01  .791624188423E-08
      .958528397229E+00  .174578125000E+03 -.196175543860E+01 -.674135223295E-08
      .491806199988E-09  .000000000000E+00  .696000000000E+03  .100000000000E+01
      .200000000000E+01  .000000000000E+00  .570000000000E-08  .130000000000E-08
      .470460000000E+06  .900000000000E+01
C26 2019  5 10 10  0  0  .236032065004E-03  .137925226795E-10  .000000000000E+00
      .100000000000E+01  .448437500000E+02  .391194866265E-08  .394721157789E+00
      .231247395277E-05  .509799108841E-03  .929646193981E-05  .528262532234E+04
      .468000000000E+06 -.232830643654E-07  .819481307806E+00 -.135041773319E-07
      .957744568648E+00  .167578125000E+03  .249385258571E+00 -.678278253012E-08
     -.468590947265E-09  .000000000000E+00  .696000000000E+03  .100000000000E+01
      .200000000000E+01  .000000000000E+00 -.600000000000E-08 -.600000000000E-08
      .470850000000E+06  .100000000000E+01
C 8 2019  5 10 10  0  0  .155891408212E-03  .409539069324E-11  .000000000000E+00
      .100000000000E+01 -.692812500000E+03  .659670335060E-09 -.234888841837E+01
     -.225533731282E-04  .385005061980E-02  .755069777369E-05  .649357950211E+04
      .468000000000E+06 -.149942934513E-06 -.273731949801E+01  .190921127796E-06
      .102543437042E+01  .264062500000E+02 -.268216442746E+01 -.219902016945E-08
     -.252510518077E-09  .000000000000E+00  .696000000000E+03  .100000000000E+01
      .200000000000E+01  .000000000000E+00  .980000000000E-08 -.800000000000E-09
      .470880000000E+06  .000000000000E+00
C26 2019  5 10 11  0  0  .236083171330E-03  .140003564297E-10  .000000000000E+00
      .100000000000E+01  .407812500000E+02  .396587948051E-08  .883151825538E+00
      .222539529204E-05  .509368488565E-03  .926293432713E-05  .528262413406E+04
      .471600000000E+06 -.419095158577E-08  .819456808317E+00 -.107102096081E-07
      .957742859960E+00  .169906250000E+03  .248521940874E+00 -.679099715800E-08
     -.456447584303E-09  .000000000000E+00  .696000000000E+03  .100000000000E+01
      .200000000000E+01  .000000000000E+00 -.600000000000E-08 -.600000000000E-08
      .471600000000E+06  .100000000000E+01
C14 2019  5 10 11  0  0  .625112326816E-03 -.230473418128E-10  .116551733542E-17
      .110000000000E+02 -.135468750000E+02  .392123476374E-08 -.181367929194E+01
     -.595115125179E-06  .219713675324E-02  .891601666808E-05  .528261722946E+04
      .471600000000E+06  .139698386192E-08 -.126784415910E+01  .186264514923E-08
      .958530183452E+00  .176906250000E+03 -.196226521435E+01 -.673670918241E-08
      .493591988659E-09  .000000000000E+00  .696000000000E+03  .100000000000E+01
      .200000000000E+01  .000000000000E+00  .570000000000E-08  .130000000000E-08
      .471600000000E+06  .100000000000E+02
C 8 2019  5 10 11  0  0  .155905145220E-03  .395328214609E-11  .000000000000E+00
      .100000000000E+01 -.694468750000E+03  .613954145083E-09 -.208577540133E+01
     -.226101838052E-04  .384896469768E-02  .840285792947E-05  .649358576202E+04
      .471600000000E+06 -.136438757181E-06 -.273732701887E+01  .991858541965E-07
      .102543350730E+01 -.226562500000E+01 -.268278124639E+01 -.220152027358E-08
     -.290012080167E-09  .000000000000E+00  .696000000000E+03  .100000000000E+01
      .200000000000E+01  .000000000000E+00  .980000000000E-08 -.800000000000E-09
      .471630000000E+06  .000000000000E+00
C30 2019  5 10 11  0  0  .120726879686E-03  .657962573314E-11  .000000000000E+00
      .100000000000E+01 -.337343750000E+02  .381730186309E-08  .145829510599E+01
     -.159675255418E-05  .479421112686E-03  .150920823216E-05  .528261384201E+04
      .471600000000E+06 -.133644789457E-06  .291007477424E+01 -.242143869400E-07
      .963637982407E+00  .334828125000E+03 -.402090392565E-01 -.710851038370E-08
     -.478591363823E-10  .000000000000E+00  .696000000000E+03  .100000000000E+01
      .200000000000E+01  .000000000000E+00 -.109000000000E-07 -.109000000000E-07
      .471840000000E+06  .100000000000E+01
C13 2019  5 10 11  0  0 -.704077305272E-03 -.234106067865E-10  .000000000000E+00
      .100000000000E+01 -.701125000000E+03  .913252326339E-09 -.237229089151E+01
     -.225864350796E-04  .316754635423E-02  .438233837485E-05  .649376724243E+04
      .471600000000E+06 -.150408595800E-06 -.275283182490E+01  .313855707645E-06
      .986208829042E+00  .113187500000E+03 -.282781028684E+01 -.232223958774E-08
     -.210008747707E-09  .000000000000E+00  .696000000000E+03  .100000000000E+01
      .200000000000E+01  .000000000000E+00 -.105000000000E-07  .250000000000E-08
      .472710000000E+06  .000000000000E+00
C24 2019  5 10 11  0  0 -.804731622338E-03 -.733502147909E-10  .000000000000E+00
      .100000000000E+01  .527812500000E+02  .389016204086E-08 -.294038088507E+00
      .261189416051E-05  .372105161659E-03  .942498445511E-05  .528262519836E+04
      .471600000000E+06 -.414438545704E-07  .845236444336E+00  .279396772385E-08
      .956604635086E+00  .166375000000E+03  .664121071125E+00 -.677278211356E-08
     -.436803908922E-09  .000000000000E+00  .696000000000E+03  .100000000000E+01
      .200000000000E+01  .000000000000E+00  .117000000000E-07  .117000000000E-07
      .474900000000E+06  .100000000000E+01
C24 2019  5 10 12  0  0 -.804996117949E-03 -.733981764256E-10  .000000000000E+00
      .100000000000E+01  .412031250000E+02  .396873674239E-08  .194191229050E+00
      .215601176023E-05  .370554509573E-03  .939518213272E-05  .528262215042E+04
      .475200000000E+06 -.204890966415E-07  .845211952162E+00 -.144354999065E-07
      .956603005395E+00  .167187500000E+03  .663459080214E+00 -.678956852707E-08
     -.422517599554E-09  .000000000000E+00  .696000000000E+03  .100000000000E+01
      .200000000000E+01  .000000000000E+00  .117000000000E-07  .117000000000E-07
      .475200000000E+06  .100000000000E+01
C13 2019  5 10 12  0  0 -.704162055627E-03 -.234727792758E-10  .000000000000E+00
      .100000000000E+01 -.687906250000E+03  .827177312398E-09 -.210837873206E+01
     -.221887603402E-04  .316543923691E-02  .602239742875E-05  .649377929497E+04
      .475200000000E+06 -.194180756807E-06 -.275283966321E+01  .198371708393E-06
      .986208189747E+00  .600312500000E+02 -.282924778964E+01 -.231545359079E-08
     -.259653672761E-09  .000000000000E+00  .696000000000E+03  .100000000000E+01
      .200000000000E+01  .000000000000E+00 -.105000000000E-07  .250000000000E-08
      .475200000000E+06  .000000000000E+00
C 8 2019  5 10 12  0  0  .155919813551E-03  .401634281388E-11  .000000000000E+00
      .100000000000E+01 -.678859375000E+03  .660027492794E-09 -.182385302113E+01
     -.221692025661E-04  .384919415228E-02  .787852331996E-05  .649358042717E+04
      .475200000000E+06 -.118277966976E-06 -.273733482939E+01  .782310962677E-07
      .102543245253E+01  .160781250000E+02 -.268220900111E+01 -.220437753546E-08
     -.300369654459E-09  .000000000000E+00  .696000000000E+03  .100000000000E+01
      .200000000000E+01  .000000000000E+00  .980000000000E-08 -.800000000000E-09
      .475230000000E+06  .000000000000E+00
C30 2019  5 10 12  0  0  .120750395581E-03  .656985577052E-11  .000000000000E+00
      .100000000000E+01 -.383593750000E+02  .382944522605E-08  .194394023582E+01
     -.187708064914E-05  .479041715153E-03  .185612589121E-05  .528261579514E+04
      .475200000000E+06 -.465661287308E-07  .291004963399E+01 -.917352735996E-07
      .963637707378E+00  .329343750000E+03 -.382843393821E-01 -.713744016017E-08
     -.124648049234E-09  .000000000000E+00  .696000000000E+03  .100000000000E+01
      .200000000000E+01  .000000000000E+00 -.109000000000E-07 -.109000000000E-07
      .475320000000E+06  .100000000000E+01
C29 2019  5 10 12  0  0  .615750905126E-04  .517896836527E-11  .000000000000E+00
      .100000000000E+01 -.284687500000E+02  .384408869315E-08  .213991468301E+00
     -.140443444252E-05  .201642629690E-03  .154366716743E-05  .528261621475E+04
      .475200000000E+06 -.101514160633E-06  .290947483300E+01  .484287738800E-07
      .963702782363E+00  .332437500000E+03  .896678751686E+00 -.713886879111E-08
     -.292869342041E-10  .000000000000E+00  .696000000000E+03  .100000000000E+01
      .200000000000E+01  .000000000000E+00 -.130000000000E-08 -.130000000000E-08
      .476070000000E+06  .100000000000E+01
